[{"OBJECT_NAME":"ONEWEB-0219","OBJECT_ID":"2021-031P","EPOCH":"2026-03-09T15:52:18.580224","MEAN_MOTION":13.14502978,"ECCENTRICITY":0.00017982,"INCLINATION":87.8985,"RA_OF_ASC_NODE":309.5581,"ARG_OF_PERICENTER":73.7793,"MEAN_ANOMALY":286.3534,"EPHEMERIS_TYPE":0,"CLASSIFICATION_TYPE":"U","NORAD_CAT_ID":48223,"ELEMENT_SET_NO":999,"REV_AT_EPOCH":23530,"BSTAR":0.00054501356,"MEAN_MOTION_DOT":2.15e-6,"MEAN_MOTION_DDOT":0},{"OBJECT_NAME":"COSMOS 1275 DEB","OBJECT_ID":"1981-053EB","EPOCH":"2026-03-09T19:57:45.160416","MEAN_MOTION":13.44974289,"ECCENTRICITY":0.01958865,"INCLINATION":83.096,"RA_OF_ASC_NODE":186.1067,"ARG_OF_PERICENTER":78.5052,"MEAN_ANOMALY":49.5123,"EPHEMERIS_TYPE":0,"CLASSIFICATION_TYPE":"U","NORAD_CAT_ID":12947,"ELEMENT_SET_NO":999,"REV_AT_EPOCH":16777,"BSTAR":0.00053497689,"MEAN_MOTION_DOT":3.69e-6,"MEAN_MOTION_DDOT":0}]
